{
  "type": "FeatureCollection",
  "features": [
    {
      "type": "Feature",
      "properties": {
        "norad_id": 38091,
        "name": "BEIDOU-2 G5 (C05)",
        "group": "gnss",
        "lat": -2.6323311628697557,
        "lon": 12.282868954296642,
        "alt_km": 35771.98588095027,
        "timestamp": "2025-12-08T15:42:50.032816+00:00",
        "meta_object_name": "BEIDOU-2 G5 (C05)",
        "meta_object_id": "2012-008A",
        "meta_epoch": "2025-12-08T03:36:39.993696",
        "meta_mean_motion": 1.00274017,
        "meta_eccentricity": 0.00125312,
        "meta_inclination": 3.0977,
        "meta_ra_of_asc_node": 70.7225,
        "meta_arg_of_pericenter": 226.8008,
        "meta_mean_anomaly": 252.5412,
        "meta_ephemeris_type": 0,
        "meta_classification_type": "U",
        "meta_norad_cat_id": 38091,
        "meta_element_set_no": 999,
        "meta_rev_at_epoch": 5045,
        "meta_bstar": 0,
        "meta_mean_motion_dot": 5.8e-07,
        "meta_mean_motion_ddot": 0,
        "tle_line1": "1 38091U 12008A   25342.15046289  .00000058  00000+0  00000+0 0  9994",
        "tle_line2": "2 38091   3.0977  70.7225 0012531 226.8008 252.5412  1.00274017 50457"
      },
      "geometry": {
        "type": "Point",
        "coordinates": [
          12.282868954296642,
          -2.6323311628697557
        ]
      }
    },
    {
      "type": "Feature",
      "properties": {
        "norad_id": 38250,
        "name": "BEIDOU-2 M3 (C11)",
        "group": "gnss",
        "lat": 44.44500957154452,
        "lon": -7.157211888199508,
        "alt_km": 21577.816894535263,
        "timestamp": "2025-12-08T15:42:50.032828+00:00",
        "meta_object_name": "BEIDOU-2 M3 (C11)",
        "meta_object_id": "2012-018A",
        "meta_epoch": "2025-12-05T21:12:32.531040",
        "meta_mean_motion": 1.86229708,
        "meta_eccentricity": 0.00244284,
        "meta_inclination": 55.926,
        "meta_ra_of_asc_node": 311.388,
        "meta_arg_of_pericenter": 273.8805,
        "meta_mean_anomaly": 85.8231,
        "meta_ephemeris_type": 0,
        "meta_classification_type": "U",
        "meta_norad_cat_id": 38250,
        "meta_element_set_no": 999,
        "meta_rev_at_epoch": 9234,
        "meta_bstar": 0,
        "meta_mean_motion_dot": -7e-07,
        "meta_mean_motion_ddot": 0,
        "tle_line1": "1 38250U 12018A   25339.88370985 -.00000070  00000+0  00000+0 0  9996",
        "tle_line2": "2 38250  55.9260 311.3880 0024428 273.8805  85.8231  1.86229708 92342"
      },
      "geometry": {
        "type": "Point",
        "coordinates": [
          -7.157211888199508,
          44.44500957154452
        ]
      }
    },
    {
      "type": "Feature",
      "properties": {
        "norad_id": 38251,
        "name": "BEIDOU-2 M4 (C12)",
        "group": "gnss",
        "lat": 53.65175779882756,
        "lon": 63.18399202724873,
        "alt_km": 21565.121386691815,
        "timestamp": "2025-12-08T15:42:50.032842+00:00",
        "meta_object_name": "BEIDOU-2 M4 (C12)",
        "meta_object_id": "2012-018B",
        "meta_epoch": "2025-12-07T23:07:34.804992",
        "meta_mean_motion": 1.86229443,
        "meta_eccentricity": 0.00155166,
        "meta_inclination": 55.8258,
        "meta_ra_of_asc_node": 310.5475,
        "meta_arg_of_pericenter": 277.4657,
        "meta_mean_anomaly": 82.3439,
        "meta_ephemeris_type": 0,
        "meta_classification_type": "U",
        "meta_norad_cat_id": 38251,
        "meta_element_set_no": 999,
        "meta_rev_at_epoch": 9238,
        "meta_bstar": 0,
        "meta_mean_motion_dot": -7.1e-07,
        "meta_mean_motion_ddot": 0,
        "tle_line1": "1 38251U 12018B   25341.96359728 -.00000071  00000+0  00000+0 0  9992",
        "tle_line2": "2 38251  55.8258 310.5475 0015516 277.4657  82.3439  1.86229443 92385"
      },
      "geometry": {
        "type": "Point",
        "coordinates": [
          63.18399202724873,
          53.65175779882756
        ]
      }
    },
    {
      "type": "Feature",
      "properties": {
        "norad_id": 38652,
        "name": "SES-5 (EGNOS/PRN 136)",
        "group": "gnss",
        "lat": 0.0072759646341238726,
        "lon": -41.6359809940213,
        "alt_km": 35781.50669781313,
        "timestamp": "2025-12-08T15:42:50.032855+00:00",
        "meta_object_name": "SES-5 (EGNOS/PRN 136)",
        "meta_object_id": "2012-036A",
        "meta_epoch": "2025-12-08T03:21:18.963648",
        "meta_mean_motion": 1.00271915,
        "meta_eccentricity": 0.00021785,
        "meta_inclination": 0.0583,
        "meta_ra_of_asc_node": 304.6368,
        "meta_arg_of_pericenter": 312.9253,
        "meta_mean_anomaly": 234.8974,
        "meta_ephemeris_type": 0,
        "meta_classification_type": "U",
        "meta_norad_cat_id": 38652,
        "meta_element_set_no": 999,
        "meta_rev_at_epoch": 4255,
        "meta_bstar": 0,
        "meta_mean_motion_dot": 3.7e-07,
        "meta_mean_motion_ddot": 0,
        "tle_line1": "1 38652U 12036A   25342.13980282  .00000037  00000+0  00000+0 0  9993",
        "tle_line2": "2 38652   0.0583 304.6368 0002178 312.9253 234.8974  1.00271915 42554"
      },
      "geometry": {
        "type": "Point",
        "coordinates": [
          -41.6359809940213,
          0.0072759646341238726
        ]
      }
    },
    {
      "type": "Feature",
      "properties": {
        "norad_id": 38775,
        "name": "BEIDOU-2 M6 (C14)",
        "group": "gnss",
        "lat": -47.87759871319103,
        "lon": 21.920612207224906,
        "alt_km": 21513.316411880827,
        "timestamp": "2025-12-08T15:42:50.032867+00:00",
        "meta_object_name": "BEIDOU-2 M6 (C14)",
        "meta_object_id": "2012-050B",
        "meta_epoch": "2025-12-06T01:31:40.709568",
        "meta_mean_motion": 1.86230702,
        "meta_eccentricity": 0.00109743,
        "meta_inclination": 56.3728,
        "meta_ra_of_asc_node": 69.289,
        "meta_arg_of_pericenter": 345.7667,
        "meta_mean_anomaly": 14.2153,
        "meta_ephemeris_type": 0,
        "meta_classification_type": "U",
        "meta_norad_cat_id": 38775,
        "meta_element_set_no": 999,
        "meta_rev_at_epoch": 8971,
        "meta_bstar": 0,
        "meta_mean_motion_dot": -4.7e-07,
        "meta_mean_motion_ddot": 0,
        "tle_line1": "1 38775U 12050B   25340.06366562 -.00000047  00000+0  00000+0 0  9996",
        "tle_line2": "2 38775  56.3728  69.2890 0010974 345.7667  14.2153  1.86230702 89716"
      },
      "geometry": {
        "type": "Point",
        "coordinates": [
          21.920612207224906,
          -47.87759871319103
        ]
      }
    },
    {
      "type": "Feature",
      "properties": {
        "norad_id": 38779,
        "name": "GSAT-10 (GAGAN/PRN 128)",
        "group": "gnss",
        "lat": 0.022920527888775688,
        "lon": 36.31981972206256,
        "alt_km": 35785.873847073075,
        "timestamp": "2025-12-08T15:42:50.032879+00:00",
        "meta_object_name": "GSAT-10 (GAGAN/PRN 128)",
        "meta_object_id": "2012-051B",
        "meta_epoch": "2025-12-08T03:43:31.836576",
        "meta_mean_motion": 1.0027333,
        "meta_eccentricity": 0.00021921,
        "meta_inclination": 0.0193,
        "meta_ra_of_asc_node": 264.1552,
        "meta_arg_of_pericenter": 223.6897,
        "meta_mean_anomaly": 88.1837,
        "meta_ephemeris_type": 0,
        "meta_classification_type": "U",
        "meta_norad_cat_id": 38779,
        "meta_element_set_no": 999,
        "meta_rev_at_epoch": 4818,
        "meta_bstar": 0,
        "meta_mean_motion_dot": -1.62e-06,
        "meta_mean_motion_ddot": 0,
        "tle_line1": "1 38779U 12051B   25342.15522959 -.00000162  00000+0  00000+0 0  9995",
        "tle_line2": "2 38779   0.0193 264.1552 0002192 223.6897  88.1837  1.00273330 48180"
      },
      "geometry": {
        "type": "Point",
        "coordinates": [
          36.31981972206256,
          0.022920527888775688
        ]
      }
    },
    {
      "type": "Feature",
      "properties": {
        "norad_id": 38833,
        "name": "GPS BIIF-3  (PRN 24)",
        "group": "gnss",
        "lat": -25.847187334855942,
        "lon": -7.623110146634204,
        "alt_km": 20582.329374710334,
        "timestamp": "2025-12-08T15:42:50.032891+00:00",
        "meta_object_name": "GPS BIIF-3  (PRN 24)",
        "meta_object_id": "2012-053A",
        "meta_epoch": "2025-12-07T20:46:13.738656",
        "meta_mean_motion": 2.00564906,
        "meta_eccentricity": 0.01756617,
        "meta_inclination": 53.5567,
        "meta_ra_of_asc_node": 151.4383,
        "meta_arg_of_pericenter": 63.924,
        "meta_mean_anomaly": 297.8703,
        "meta_ephemeris_type": 0,
        "meta_classification_type": "U",
        "meta_norad_cat_id": 38833,
        "meta_element_set_no": 999,
        "meta_rev_at_epoch": 9560,
        "meta_bstar": 0,
        "meta_mean_motion_dot": 5.3e-07,
        "meta_mean_motion_ddot": 0,
        "tle_line1": "1 38833U 12053A   25341.86543679  .00000053  00000+0  00000+0 0  9995",
        "tle_line2": "2 38833  53.5567 151.4383 0175661  63.9240 297.8703  2.00564906 95601"
      },
      "geometry": {
        "type": "Point",
        "coordinates": [
          -7.623110146634204,
          -25.847187334855942
        ]
      }
    }
  ]
}